{
    "links": {
        "self": "http://www.neowsapp.com/rest/v1/neo/3789451?api_key=iIulBulltgU6a56xZRHN4H3l9WmuAYTsLGpBGhQ2"
    },
    "id": "3789451",
    "neo_reference_id": "3789451",
    "name": "(2017 WU)",
    "designation": "2017 WU",
    "nasa_jpl_url": "http://ssd.jpl.nasa.gov/sbdb.cgi?sstr=3789451",
    "absolute_magnitude_h": 23.9,
    "estimated_diameter": {
        "kilometers": {
            "estimated_diameter_min": 0.04411182,
            "estimated_diameter_max": 0.0986370281
        },
        "meters": {
            "estimated_diameter_min": 44.1118199997,
            "estimated_diameter_max": 98.6370281305
        },
        "miles": {
            "estimated_diameter_min": 0.0274098057,
            "estimated_diameter_max": 0.0612901888
        },
        "feet": {
            "estimated_diameter_min": 144.7238235278,
            "estimated_diameter_max": 323.6123073718
        }
    },
    "is_potentially_hazardous_asteroid": false,
    "close_approach_data": [
        {
            "close_approach_date": "2013-11-15",
            "close_approach_date_full": "2013-Nov-15 14:23",
            "epoch_date_close_approach": 1384525380000,
            "relative_velocity": {
                "kilometers_per_second": "13.1020516094",
                "kilometers_per_hour": "47167.3857937007",
                "miles_per_hour": "29307.9792449803"
            },
            "miss_distance": {
                "astronomical": "0.375743397",
                "lunar": "146.164181433",
                "kilometers": "56210411.85776439",
                "miles": "34927530.317312982"
            },
            "orbiting_body": "Earth"
        },
        {
            "close_approach_date": "2017-11-26",
            "close_approach_date_full": "2017-Nov-26 20:11",
            "epoch_date_close_approach": 1511727060000,
            "relative_velocity": {
                "kilometers_per_second": "7.5402092266",
                "kilometers_per_hour": "27144.753215904",
                "miles_per_hour": "16866.694019071"
            },
            "miss_distance": {
                "astronomical": "0.1829625125",
                "lunar": "71.1724173625",
                "kilometers": "27370802.159848375",
                "miles": "17007427.817222575"
            },
            "orbiting_body": "Earth"
        },
        {
            "close_approach_date": "2020-01-14",
            "close_approach_date_full": "2020-Jan-14 04:48",
            "epoch_date_close_approach": 1578977280000,
            "relative_velocity": {
                "kilometers_per_second": "4.9582708174",
                "kilometers_per_hour": "17849.7749427887",
                "miles_per_hour": "11091.1559915344"
            },
            "miss_distance": {
                "astronomical": "1.983129377",
                "lunar": "771.437327653",
                "kilometers": "296671930.73362699",
                "miles": "184343389.641312862"
            },
            "orbiting_body": "Juptr"
        },
        {
            "close_approach_date": "2021-11-21",
            "close_approach_date_full": "2021-Nov-21 15:14",
            "epoch_date_close_approach": 1637507640000,
            "relative_velocity": {
                "kilometers_per_second": "7.7358489682",
                "kilometers_per_hour": "27849.0562854883",
                "miles_per_hour": "17304.3205569469"
            },
            "miss_distance": {
                "astronomical": "0.4907193786",
                "lunar": "190.8898382754",
                "kilometers": "73410573.806283582",
                "miles": "45615215.3575821516"
            },
            "orbiting_body": "Earth"
        },
        {
            "close_approach_date": "2066-11-28",
            "close_approach_date_full": "2066-Nov-28 19:46",
            "epoch_date_close_approach": 3058199160000,
            "relative_velocity": {
                "kilometers_per_second": "6.6218106012",
                "kilometers_per_hour": "23838.5181641715",
                "miles_per_hour": "14812.328133732"
            },
            "miss_distance": {
                "astronomical": "0.2303447998",
                "lunar": "89.6041271222",
                "kilometers": "34459091.415656426",
                "miles": "21411886.5233176388"
            },
            "orbiting_body": "Earth"
        }
    ],
    "orbital_data": {
        "orbit_id": "7",
        "orbit_determination_date": "2018-02-10 07:09:24",
        "first_observation_date": "2017-11-16",
        "last_observation_date": "2017-12-16",
        "data_arc_in_days": 30,
        "observations_used": 42,
        "orbit_uncertainty": "7",
        "minimum_orbit_intersection": ".195995",
        "jupiter_tisserand_invariant": "3.194",
        "epoch_osculation": "2459000.5",
        "eccentricity": ".5440938418319595",
        "semi_major_axis": "2.549129341939183",
        "inclination": "10.94450843644713",
        "ascending_node_longitude": "226.2748020736694",
        "orbital_period": "1486.572980177674",
        "perihelion_distance": "1.162163764956918",
        "perihelion_argument": "210.69385980",
        "aphelion_distance": "3.936094918921448",
        "perihelion_time": "2459581.340157357141",
        "mean_anomaly": "219.3392591976353",
        "mean_motion": ".2421677272494035",
        "equinox": "J2000",
        "orbit_class": {
            "orbit_class_type": "AMO",
            "orbit_class_description": "Near-Earth asteroid orbits similar to that of 1221 Amor",
            "orbit_class_range": "1.017 AU < q (perihelion) < 1.3 AU"
        }
    },
    "is_sentry_object": false
}